{
  "norad_id": 68700,
  "name": "STARLINK-37334",
  "history": [
    {
      "epoch": "2026-04-23T17:12:45.616032Z",
      "apogee_km": 325.7862255959635,
      "perigee_km": 321.9442357971957,
      "latitude_deg": 2.3988487618336085e-05,
      "longitude_deg": 85.32213009699446,
      "height_km": 323.33957888163087,
      "semi_major_axis_km": 6702.002230696579,
      "eccentricity": 0.00028663,
      "inclination_deg": 53.1603,
      "raan_deg": 195.2726,
      "arg_perigee_deg": 41.3017,
      "mean_anomaly_deg": 318.8223,
      "mean_motion_rev_day": 15.82325802
    },
    {
      "epoch": "2026-04-25T08:00:01.999008Z",
      "apogee_km": 328.8717210982495,
      "perigee_km": 326.90819640472637,
      "latitude_deg": -19.01356366178241,
      "longitude_deg": 48.68455531680599,
      "height_km": 333.5070011645509,
      "semi_major_axis_km": 6706.026958751488,
      "eccentricity": 0.0001464,
      "inclination_deg": 53.1626,
      "raan_deg": 187.1728,
      "arg_perigee_deg": 91.9576,
      "mean_anomaly_deg": 111.8121,
      "mean_motion_rev_day": 15.80901529
    },
    {
      "epoch": "2026-04-25T16:14:44.513376Z",
      "apogee_km": 328.70975930874556,
      "perigee_km": 326.55211141786367,
      "latitude_deg": 2.918371941119018e-05,
      "longitude_deg": 88.0738491391455,
      "height_km": 328.1175716512253,
      "semi_major_axis_km": 6705.767935363305,
      "eccentricity": 0.00016088,
      "inclination_deg": 53.1601,
      "raan_deg": 185.4513,
      "arg_perigee_deg": 66.4592,
      "mean_anomaly_deg": 293.66,
      "mean_motion_rev_day": 15.80993128
    }
  ]
}